PROGRESS-MS 32          
1 65586U 25204A   25322.86766953  .00013464  00000+0  24514-3 0  9993
2 65586  51.6332 260.6313 0004180  85.6954 274.4512 15.49802634   279
CYGNUS NG-23            
1 65616U 25208A   25322.86766953  .00013464  00000+0  24514-3 0  9991
2 65616  51.6332 260.6313 0004180  85.6954 274.4512 15.49802634   228
DRAGONFLY               
1 65729U 98067XH  25322.06784337  .00120116  00000+0  12275-2 0  9990
2 65729  51.6305 261.2981 0005128 140.2196 219.9175 15.64137736  9296
1998-067XJ              
1 65730U 98067XJ  25322.85827403  .00558185  00000+0  23956-2 0  9990
2 65730  51.6228 254.5433 0011889 144.3757 215.8041 15.82966684  9455
1998-067XK              
1 65731U 98067XK  25322.82396760  .00081033  00000+0  94413-3 0  9995
2 65731  51.6316 258.0966 0005892 123.1677 236.9883 15.60942952  9408
RSP-03                  
1 65732U 98067XL  25322.92594503  .00087996  00000+0  96082-3 0  9990
2 65732  51.6297 257.2734 0006671 125.6107 234.5510 15.62579620  9436
GHS-01                  
1 65733U 98067XM  25322.81564743  .00138194  00000+0  13274-2 0  9990
2 65733  51.6302 257.2896 0006057 145.8462 214.2925 15.65621307  9426
YOTSUBA-KULOVER         
1 65941U 98067XN  25322.84469332  .00063549  00000+0  90028-3 0  9996
2 65941  51.6312 259.7302 0002467  92.1919 267.9355 15.55867143  6135
BOTAN                   
1 65942U 98067XP  25322.88871583  .00078385  00000+0  10351-2 0  9990
2 65942  51.6309 259.2747 0004710 101.0100 259.1422 15.57662543  6143
E-KAGAKU-1              
1 65943U 98067XQ  25322.13775449  .00063641  00000+0  90517-3 0  9995
2 65943  51.6318 263.2607 0004114  78.5664 281.5789 15.55753809  6021
HRC MONOBLOCK CAMERA    
1 66052U 98067XR  25322.13472351  .00040507  00000+0  66350-3 0  9997
2 66052  51.6317 263.9858 0004763  85.2424 274.9110 15.52060636  5014
HTV-X1                  
1 66174U 25241A   25322.86766953  .00013464  00000+0  24514-3 0  9998
2 66174  51.6332 260.6313 0004180  85.6954 274.4512 15.49802634  1454
