CCSDS_OMM_VERS = 2.0
CREATION_DATE  = 
ORIGINATOR     = 

OBJECT_NAME    = PROGRESS-MS 32
OBJECT_ID      = 2025-204A
CENTER_NAME    = EARTH
REF_FRAME      = TEME
TIME_SYSTEM    = UTC
MEAN_ELEMENT_THEORY = SGP/SGP4

EPOCH          = 2025-11-18T20:49:26.647392
MEAN_MOTION    = 15.49802634
ECCENTRICITY   = .00041801
INCLINATION    = 51.6332
RA_OF_ASC_NODE = 260.6313
ARG_OF_PERICENTER = 85.6954
MEAN_ANOMALY   = 274.4512

EPHEMERIS_TYPE = 0
CLASSIFICATION_TYPE = U
NORAD_CAT_ID   = 65586
ELEMENT_SET_NO = 999
REV_AT_EPOCH   = 27
BSTAR          = .24513891E-3
MEAN_MOTION_DOT = .13464E-3
MEAN_MOTION_DDOT = 0

CCSDS_OMM_VERS = 2.0
CREATION_DATE  = 
ORIGINATOR     = 

OBJECT_NAME    = CYGNUS NG-23
OBJECT_ID      = 2025-208A
CENTER_NAME    = EARTH
REF_FRAME      = TEME
TIME_SYSTEM    = UTC
MEAN_ELEMENT_THEORY = SGP/SGP4

EPOCH          = 2025-11-18T20:49:26.647392
MEAN_MOTION    = 15.49802634
ECCENTRICITY   = .00041801
INCLINATION    = 51.6332
RA_OF_ASC_NODE = 260.6313
ARG_OF_PERICENTER = 85.6954
MEAN_ANOMALY   = 274.4512

EPHEMERIS_TYPE = 0
CLASSIFICATION_TYPE = U
NORAD_CAT_ID   = 65616
ELEMENT_SET_NO = 999
REV_AT_EPOCH   = 22
BSTAR          = .24513891E-3
MEAN_MOTION_DOT = .13464E-3
MEAN_MOTION_DDOT = 0

CCSDS_OMM_VERS = 2.0
CREATION_DATE  = 
ORIGINATOR     = 

OBJECT_NAME    = DRAGONFLY
OBJECT_ID      = 1998-067XH
CENTER_NAME    = EARTH
REF_FRAME      = TEME
TIME_SYSTEM    = UTC
MEAN_ELEMENT_THEORY = SGP/SGP4

EPOCH          = 2025-11-18T01:37:41.667168
MEAN_MOTION    = 15.64137736
ECCENTRICITY   = .00051285
INCLINATION    = 51.6305
RA_OF_ASC_NODE = 261.2981
ARG_OF_PERICENTER = 140.2196
MEAN_ANOMALY   = 219.9175

EPHEMERIS_TYPE = 0
CLASSIFICATION_TYPE = U
NORAD_CAT_ID   = 65729
ELEMENT_SET_NO = 999
REV_AT_EPOCH   = 929
BSTAR          = .12274648E-2
MEAN_MOTION_DOT = .120116E-2
MEAN_MOTION_DDOT = 0

CCSDS_OMM_VERS = 2.0
CREATION_DATE  = 
ORIGINATOR     = 

OBJECT_NAME    = 1998-067XJ
OBJECT_ID      = 1998-067XJ
CENTER_NAME    = EARTH
REF_FRAME      = TEME
TIME_SYSTEM    = UTC
MEAN_ELEMENT_THEORY = SGP/SGP4

EPOCH          = 2025-11-18T20:35:54.876192
MEAN_MOTION    = 15.82966684
ECCENTRICITY   = .00118894
INCLINATION    = 51.6228
RA_OF_ASC_NODE = 254.5433
ARG_OF_PERICENTER = 144.3757
MEAN_ANOMALY   = 215.8041

EPHEMERIS_TYPE = 0
CLASSIFICATION_TYPE = U
NORAD_CAT_ID   = 65730
ELEMENT_SET_NO = 999
REV_AT_EPOCH   = 945
BSTAR          = .23955511E-2
MEAN_MOTION_DOT = .558185E-2
MEAN_MOTION_DDOT = 0

CCSDS_OMM_VERS = 2.0
CREATION_DATE  = 
ORIGINATOR     = 

OBJECT_NAME    = 1998-067XK
OBJECT_ID      = 1998-067XK
CENTER_NAME    = EARTH
REF_FRAME      = TEME
TIME_SYSTEM    = UTC
MEAN_ELEMENT_THEORY = SGP/SGP4

EPOCH          = 2025-11-18T19:46:30.800640
MEAN_MOTION    = 15.60942952
ECCENTRICITY   = .00058926
INCLINATION    = 51.6316
RA_OF_ASC_NODE = 258.0966
ARG_OF_PERICENTER = 123.1677
MEAN_ANOMALY   = 236.9883

EPHEMERIS_TYPE = 0
CLASSIFICATION_TYPE = U
NORAD_CAT_ID   = 65731
ELEMENT_SET_NO = 999
REV_AT_EPOCH   = 940
BSTAR          = .94412794E-3
MEAN_MOTION_DOT = .81033E-3
MEAN_MOTION_DDOT = 0

CCSDS_OMM_VERS = 2.0
CREATION_DATE  = 
ORIGINATOR     = 

OBJECT_NAME    = RSP-03
OBJECT_ID      = 1998-067XL
CENTER_NAME    = EARTH
REF_FRAME      = TEME
TIME_SYSTEM    = UTC
MEAN_ELEMENT_THEORY = SGP/SGP4

EPOCH          = 2025-11-18T22:13:21.650592
MEAN_MOTION    = 15.62579620
ECCENTRICITY   = .00066718
INCLINATION    = 51.6297
RA_OF_ASC_NODE = 257.2734
ARG_OF_PERICENTER = 125.6107
MEAN_ANOMALY   = 234.5510

EPHEMERIS_TYPE = 0
CLASSIFICATION_TYPE = U
NORAD_CAT_ID   = 65732
ELEMENT_SET_NO = 999
REV_AT_EPOCH   = 943
BSTAR          = .96081824E-3
MEAN_MOTION_DOT = .87996E-3
MEAN_MOTION_DDOT = 0

CCSDS_OMM_VERS = 2.0
CREATION_DATE  = 
ORIGINATOR     = 

OBJECT_NAME    = GHS-01
OBJECT_ID      = 1998-067XM
CENTER_NAME    = EARTH
REF_FRAME      = TEME
TIME_SYSTEM    = UTC
MEAN_ELEMENT_THEORY = SGP/SGP4

EPOCH          = 2025-11-18T19:34:31.937952
MEAN_MOTION    = 15.65621307
ECCENTRICITY   = .00060572
INCLINATION    = 51.6302
RA_OF_ASC_NODE = 257.2896
ARG_OF_PERICENTER = 145.8462
MEAN_ANOMALY   = 214.2925

EPHEMERIS_TYPE = 0
CLASSIFICATION_TYPE = U
NORAD_CAT_ID   = 65733
ELEMENT_SET_NO = 999
REV_AT_EPOCH   = 942
BSTAR          = .1327364E-2
MEAN_MOTION_DOT = .138194E-2
MEAN_MOTION_DDOT = 0

CCSDS_OMM_VERS = 2.0
CREATION_DATE  = 
ORIGINATOR     = 

OBJECT_NAME    = YOTSUBA-KULOVER
OBJECT_ID      = 1998-067XN
CENTER_NAME    = EARTH
REF_FRAME      = TEME
TIME_SYSTEM    = UTC
MEAN_ELEMENT_THEORY = SGP/SGP4

EPOCH          = 2025-11-18T20:16:21.502848
MEAN_MOTION    = 15.55867143
ECCENTRICITY   = .00024671
INCLINATION    = 51.6312
RA_OF_ASC_NODE = 259.7302
ARG_OF_PERICENTER = 92.1919
MEAN_ANOMALY   = 267.9355

EPHEMERIS_TYPE = 0
CLASSIFICATION_TYPE = U
NORAD_CAT_ID   = 65941
ELEMENT_SET_NO = 999
REV_AT_EPOCH   = 613
BSTAR          = .90028077E-3
MEAN_MOTION_DOT = .63549E-3
MEAN_MOTION_DDOT = 0

CCSDS_OMM_VERS = 2.0
CREATION_DATE  = 
ORIGINATOR     = 

OBJECT_NAME    = BOTAN
OBJECT_ID      = 1998-067XP
CENTER_NAME    = EARTH
REF_FRAME      = TEME
TIME_SYSTEM    = UTC
MEAN_ELEMENT_THEORY = SGP/SGP4

EPOCH          = 2025-11-18T21:19:45.047712
MEAN_MOTION    = 15.57662543
ECCENTRICITY   = .00047102
INCLINATION    = 51.6309
RA_OF_ASC_NODE = 259.2747
ARG_OF_PERICENTER = 101.0100
MEAN_ANOMALY   = 259.1422

EPHEMERIS_TYPE = 0
CLASSIFICATION_TYPE = U
NORAD_CAT_ID   = 65942
ELEMENT_SET_NO = 999
REV_AT_EPOCH   = 614
BSTAR          = .10350661E-2
MEAN_MOTION_DOT = .78385E-3
MEAN_MOTION_DDOT = 0

CCSDS_OMM_VERS = 2.0
CREATION_DATE  = 
ORIGINATOR     = 

OBJECT_NAME    = E-KAGAKU-1
OBJECT_ID      = 1998-067XQ
CENTER_NAME    = EARTH
REF_FRAME      = TEME
TIME_SYSTEM    = UTC
MEAN_ELEMENT_THEORY = SGP/SGP4

EPOCH          = 2025-11-18T03:18:21.987936
MEAN_MOTION    = 15.55753809
ECCENTRICITY   = .0004114
INCLINATION    = 51.6318
RA_OF_ASC_NODE = 263.2607
ARG_OF_PERICENTER = 78.5664
MEAN_ANOMALY   = 281.5789

EPHEMERIS_TYPE = 0
CLASSIFICATION_TYPE = U
NORAD_CAT_ID   = 65943
ELEMENT_SET_NO = 999
REV_AT_EPOCH   = 602
BSTAR          = .90516796E-3
MEAN_MOTION_DOT = .63641E-3
MEAN_MOTION_DDOT = 0

CCSDS_OMM_VERS = 2.0
CREATION_DATE  = 
ORIGINATOR     = 

OBJECT_NAME    = HRC MONOBLOCK CAMERA
OBJECT_ID      = 1998-067XR
CENTER_NAME    = EARTH
REF_FRAME      = TEME
TIME_SYSTEM    = UTC
MEAN_ELEMENT_THEORY = SGP/SGP4

EPOCH          = 2025-11-18T03:14:00.111264
MEAN_MOTION    = 15.52060636
ECCENTRICITY   = .00047638
INCLINATION    = 51.6317
RA_OF_ASC_NODE = 263.9858
ARG_OF_PERICENTER = 85.2424
MEAN_ANOMALY   = 274.9110

EPHEMERIS_TYPE = 0
CLASSIFICATION_TYPE = U
NORAD_CAT_ID   = 66052
ELEMENT_SET_NO = 999
REV_AT_EPOCH   = 501
BSTAR          = .66349609E-3
MEAN_MOTION_DOT = .40507E-3
MEAN_MOTION_DDOT = 0

CCSDS_OMM_VERS = 2.0
CREATION_DATE  = 
ORIGINATOR     = 

OBJECT_NAME    = HTV-X1
OBJECT_ID      = 2025-241A
CENTER_NAME    = EARTH
REF_FRAME      = TEME
TIME_SYSTEM    = UTC
MEAN_ELEMENT_THEORY = SGP/SGP4

EPOCH          = 2025-11-18T20:49:26.647392
MEAN_MOTION    = 15.49802634
ECCENTRICITY   = .00041801
INCLINATION    = 51.6332
RA_OF_ASC_NODE = 260.6313
ARG_OF_PERICENTER = 85.6954
MEAN_ANOMALY   = 274.4512

EPHEMERIS_TYPE = 0
CLASSIFICATION_TYPE = U
NORAD_CAT_ID   = 66174
ELEMENT_SET_NO = 999
REV_AT_EPOCH   = 145
BSTAR          = .24513891E-3
MEAN_MOTION_DOT = .13464E-3
MEAN_MOTION_DDOT = 0

